[{"OBJECT_NAME":"YAOGAN-28","OBJECT_ID":"2015-064A","EPOCH":"2026-03-09T23:07:10.370208","MEAN_MOTION":15.26008,"ECCENTRICITY":0.00111911,"INCLINATION":97.2901,"RA_OF_ASC_NODE":209.4389,"ARG_OF_PERICENTER":175.4532,"MEAN_ANOMALY":184.6811,"EPHEMERIS_TYPE":0,"CLASSIFICATION_TYPE":"U","NORAD_CAT_ID":41026,"ELEMENT_SET_NO":999,"REV_AT_EPOCH":57554,"BSTAR":0.00039691695,"MEAN_MOTION_DOT":0.00010159,"MEAN_MOTION_DDOT":0},{"OBJECT_NAME":"STARLINK-32733","OBJECT_ID":"2024-254R","EPOCH":"2026-03-09T16:00:03.000096","MEAN_MOTION":15.27536121,"ECCENTRICITY":0.00015086,"INCLINATION":43.002,"RA_OF_ASC_NODE":16.1192,"ARG_OF_PERICENTER":263.144,"MEAN_ANOMALY":104.9916,"EPHEMERIS_TYPE":0,"CLASSIFICATION_TYPE":"U","NORAD_CAT_ID":62477,"ELEMENT_SET_NO":999,"REV_AT_EPOCH":587,"BSTAR":0.0015721134,"MEAN_MOTION_DOT":0.00043195,"MEAN_MOTION_DDOT":0}]
